443P/PANSTARRS-Christensen,e,19.8883,108.9428,145.1096,4.125666,0.1176151,0.28339866,57.2696,02/09.0/2024,2000,g 13.5,4.0
# From MPEC 2023-VM5
444P/WISE-PANSTARRS,e,22.2343,88.9847,171.5160,3.438593,0.1545728,0.57058858,89.3653,02/09.0/2024,2000,g 17.0,4.0
# From MPEC 2024-BE0
445P/Lemmon-PANSTARRS,e,1.0885,126.5930,213.4102,4.052092,0.1208329,0.41400509,65.3787,02/09.0/2024,2000,g 15.0,4.0
# From MPEC 2022-WQ9
446P/McNaught,e,16.6148,336.3821,344.6815,4.565861,0.1010230,0.64679324,62.6960,02/09.0/2024,2000,g 16.5,4.0
# From MPEC 2022-YB4
447P/Sheppard-Tholen,e,7.4373,302.6410,97.7292,5.633544,0.0737109,0.17851205,39.7240,02/09.0/2024,2000,g 12.0,4.0
# From MPEC 2023-A50
448P/PANSTARRS,e,12.1505,161.7566,218.7509,3.634730,0.1422315,0.41869941,74.0278,02/09.0/2024,2000,g 16.0,4.0
# From MPEC 2022-UE6
449P/Leonard,e,15.4666,242.5403,176.7056,3.600114,0.1442878,0.47983465,169.0365,02/09.0/2024,2000,g 16.0,4.0
# From MPEC 2024-AF0
450P/LONEOS,e,10.5574,124.7878,21.3678,7.972601,0.0437828,0.31198648,313.0006,02/09.0/2024,2000,g  6.5,4.0
# From MPEC 2023-HD1
451P/Christensen,e,26.4795,300.8962,186.7221,6.343841,0.0616844,0.55886585,27.0412,02/09.0/2024,2000,g 15.5,4.0
# From MPEC 2023-J29
452P/Sheppard-Jewitt,e,6.4215,123.6868,37.0447,7.302068,0.0499500,0.42782899,14.4575,02/09.0/2024,2000,g  9.0,4.0
# From MPEC 2023-RF3
453P/WISE-Lemmon,e,27.0679,42.8960,70.8494,5.462184,0.0772066,0.58284115,26.4738,02/09.0/2024,2000,g 14.0,4.0
# From MPEC 2023-CD7
454P/PANSTARRS,e,19.8127,54.5825,20.0818,4.208244,0.1141702,0.36156928,64.2412,02/09.0/2024,2000,g 14.0,4.0
# From MPEC 2022-Y14
455P/PANSTARRS,e,14.1377,146.1842,237.5066,3.152684,0.1760692,0.30486783,61.4124,02/09.0/2024,2000,g 17.0,4.0
# From MPEC 2023-N01
456P/PANSTARRS,e,16.9658,243.1648,233.7483,3.171019,0.1745443,0.11768141,284.2421,02/09.0/2024,2000,g 13.5,4.0
# From MPEC 2023-F99
457P/Lemmon-PANSTARRS,e,5.2251,175.9729,104.4004,2.646120,0.2289759,0.11871454,315.7188,02/09.0/2024,2000,g 15.5,4.0
# From MPEC 2023-HD1
458P/Jahn,e,13.6267,1.5865,104.8317,3.857553,0.1300877,0.31709333,60.7101,02/09.0/2024,2000,g 17.3,4.0
# From MPEC 2023-UR6
459P/Catalina,e,7.1727,256.9905,205.1998,3.239692,0.1690241,0.57769073,59.5944,02/09.0/2024,2000,g 15.5,4.0
# From MPEC 2023-G14
460P/PANSTARRS,e,18.8955,180.5151,351.9547,3.027085,0.1871402,0.66401910,181.0824,02/09.0/2024,2000,g 21.0,4.0
# From MPEC 2023-J95
461P/WISE,e,18.4100,194.3781,174.8263,3.143244,0.1768630,0.57012392,151.5915,02/09.0/2024,2000,g 18.5,4.0
# From MPEC 2024-BE0
462P/LONEOS-PANSTARRS,e,7.0269,322.7854,4.3766,4.877999,0.0914832,0.57822998,50.8720,02/09.0/2024,2000,g 17.0,4.0
# From MPEC 2023-XP6
463P/NEOWISE,e,29.2844,283.2095,216.3579,2.974508,0.1921239,0.82560354,60.7817,02/09.0/2024,2000,g 18.0,4.0
# From MPEC 2023-RF3
464P/PANSTARRS,e,21.6663,309.5809,267.6532,4.686887,0.0971353,0.28051815,33.6223,02/09.0/2024,2000,g 10.5,4.0
# From MPEC 2024-AF0
465P/Hill,e,25.8709,218.0097,141.1582,6.033167,0.0665099,0.61404727,18.3109,02/09.0/2024,2000,g 12.5,4.0
# From MPEC 2023-VM5
466P/PANSTARRS,e,12.2354,119.8223,196.8004,4.046955,0.1210630,0.46752697,34.0351,02/09.0/2024,2000,g 14.0,4.0
# From MPEC 2023-T65
467P/LINEAR-Grauer,e,2.4789,43.2705,267.8372,5.831320,0.0699929,0.05535107,30.4024,02/09.0/2024,2000,g  9.0,4.0
# From MPEC 2023-XP6
468P/SidingSpring,e,50.4461,356.1240,322.5625,7.123379,0.0518412,0.44550446,4.1419,02/09.0/2024,2000,g 11.5,4.0
# From MPEC 2023-P35
469P/PANSTARRS,e,20.1741,178.9654,43.5296,4.339981,0.1090115,0.30752282,287.1034,02/09.0/2024,2000,g 13.5,4.0
# From MPEC 2024-AF0
470P/PANSTARRS,e,8.8413,246.1752,152.0030,4.476950,0.1040473,0.39051049,5.5105,02/09.0/2024,2000,g 15.5,4.0
# From MPEC 2024-C04
471P/,e,4.7909,283.3305,94.9695,5.710441,0.0722270,0.62818440,3.6630,02/09.0/2024,2000,g 12.0,4.0
# From MPEC 2024-BE0
472P/NEAT-LINEAR,e,10.8527,206.0408,219.1154,7.814624,0.0451172,0.56638974,352.8438,02/09.0/2024,2000,g 10.5,4.0
# From MPC107687
1I/`Oumuamua,h,09/09.4886/2017,122.6778,24.5997,241.6845,1.199252,0.255240,2000,23.0,2.0
# From MPEC 2023-L37
2I/Borisov,h,12/08.5548/2019,44.0527,308.1480,209.1251,3.356633,2.006548,2000,11.0,4.0
